{
  "type": "FeatureCollection",
  "features": [
    {
      "type": "Feature",
      "properties": {
        "norad_id": 46805,
        "name": "COSMOS 2547 (705K)",
        "group": "glo-ops",
        "lat": 23.3201945940342,
        "lon": 6.385148239696935,
        "alt_km": 19123.074274288378,
        "timestamp": "2025-12-27T09:28:56.737610+00:00",
        "meta_object_name": "COSMOS 2547 (705K)",
        "meta_object_id": "2020-075A",
        "meta_epoch": "2025-12-26T17:24:01.074816",
        "meta_mean_motion": 2.13100147,
        "meta_eccentricity": 0.0006083,
        "meta_inclination": 64.597,
        "meta_ra_of_asc_node": 198.2292,
        "meta_arg_of_pericenter": 227.4749,
        "meta_mean_anomaly": 132.5285,
        "meta_ephemeris_type": 0,
        "meta_classification_type": "U",
        "meta_norad_cat_id": 46805,
        "meta_element_set_no": 999,
        "meta_rev_at_epoch": 4023,
        "meta_bstar": 0,
        "meta_mean_motion_dot": 1.16e-06,
        "meta_mean_motion_ddot": 0,
        "tle_line1": "1 46805U 20075A   25360.72501244  .00000116  00000+0  00000+0 0  9994",
        "tle_line2": "2 46805  64.5970 198.2292 0006083 227.4749 132.5285  2.13100147 40235"
      },
      "geometry": {
        "type": "Point",
        "coordinates": [
          6.385148239696935,
          23.3201945940342
        ]
      }
    },
    {
      "type": "Feature",
      "properties": {
        "norad_id": 52984,
        "name": "COSMOS 2557 (706K)",
        "group": "glo-ops",
        "lat": 24.44934660171656,
        "lon": -26.895947182705182,
        "alt_km": 19138.281970585547,
        "timestamp": "2025-12-27T09:28:56.737621+00:00",
        "meta_object_name": "COSMOS 2557 (706K)",
        "meta_object_id": "2022-075A",
        "meta_epoch": "2025-12-25T22:50:27.414816",
        "meta_mean_motion": 2.13102015,
        "meta_eccentricity": 0.00135372,
        "meta_inclination": 64.4024,
        "meta_ra_of_asc_node": 320.5875,
        "meta_arg_of_pericenter": 278.4992,
        "meta_mean_anomaly": 81.3515,
        "meta_ephemeris_type": 0,
        "meta_classification_type": "U",
        "meta_norad_cat_id": 52984,
        "meta_element_set_no": 999,
        "meta_rev_at_epoch": 2702,
        "meta_bstar": 0,
        "meta_mean_motion_dot": -3.5e-07,
        "meta_mean_motion_ddot": 0,
        "tle_line1": "1 52984U 22075A   25359.95170619 -.00000035  00000+0  00000+0 0  9993",
        "tle_line2": "2 52984  64.4024 320.5875 0013537 278.4992  81.3515  2.13102015 27029"
      },
      "geometry": {
        "type": "Point",
        "coordinates": [
          -26.895947182705182,
          24.44934660171656
        ]
      }
    },
    {
      "type": "Feature",
      "properties": {
        "norad_id": 54031,
        "name": "COSMOS 2559 (707K)",
        "group": "glo-ops",
        "lat": 12.613580334390067,
        "lon": 134.4502564119171,
        "alt_km": 19102.45530687738,
        "timestamp": "2025-12-27T09:28:56.737633+00:00",
        "meta_object_name": "COSMOS 2559 (707K)",
        "meta_object_id": "2022-130A",
        "meta_epoch": "2025-12-26T05:45:52.034112",
        "meta_mean_motion": 2.13101192,
        "meta_eccentricity": 0.0011465,
        "meta_inclination": 64.3745,
        "meta_ra_of_asc_node": 320.6663,
        "meta_arg_of_pericenter": 191.5639,
        "meta_mean_anomaly": 168.4144,
        "meta_ephemeris_type": 0,
        "meta_classification_type": "U",
        "meta_norad_cat_id": 54031,
        "meta_element_set_no": 999,
        "meta_rev_at_epoch": 2500,
        "meta_bstar": 0,
        "meta_mean_motion_dot": -3.6e-07,
        "meta_mean_motion_ddot": 0,
        "tle_line1": "1 54031U 22130A   25360.24018558 -.00000036  00000+0  00000+0 0  9998",
        "tle_line2": "2 54031  64.3745 320.6663 0011465 191.5639 168.4144  2.13101192 25006"
      },
      "geometry": {
        "type": "Point",
        "coordinates": [
          134.4502564119171,
          12.613580334390067
        ]
      }
    },
    {
      "type": "Feature",
      "properties": {
        "norad_id": 54377,
        "name": "COSMOS 2564 (761)",
        "group": "glo-ops",
        "lat": -60.51961007510515,
        "lon": 141.7471332700552,
        "alt_km": 19133.33855490422,
        "timestamp": "2025-12-27T09:28:56.737644+00:00",
        "meta_object_name": "COSMOS 2564 (761)",
        "meta_object_id": "2022-161A",
        "meta_epoch": "2025-12-27T00:32:50.727840",
        "meta_mean_motion": 2.13101958,
        "meta_eccentricity": 0.0008539,
        "meta_inclination": 64.7392,
        "meta_ra_of_asc_node": 198.4243,
        "meta_arg_of_pericenter": 203.4322,
        "meta_mean_anomaly": 156.5843,
        "meta_ephemeris_type": 0,
        "meta_classification_type": "U",
        "meta_norad_cat_id": 54377,
        "meta_element_set_no": 999,
        "meta_rev_at_epoch": 2396,
        "meta_bstar": 0,
        "meta_mean_motion_dot": 1.19e-06,
        "meta_mean_motion_ddot": 0,
        "tle_line1": "1 54377U 22161A   25361.02280935  .00000119  00000+0  00000+0 0  9993",
        "tle_line2": "2 54377  64.7392 198.4243 0008539 203.4322 156.5843  2.13101958 23963"
      },
      "geometry": {
        "type": "Point",
        "coordinates": [
          141.7471332700552,
          -60.51961007510515
        ]
      }
    },
    {
      "type": "Feature",
      "properties": {
        "norad_id": 57517,
        "name": "COSMOS 2569 (703K)",
        "group": "glo-ops",
        "lat": -64.69896655680273,
        "lon": 0.837886630991382,
        "alt_km": 19108.827701290615,
        "timestamp": "2025-12-27T09:28:56.737655+00:00",
        "meta_object_name": "COSMOS 2569 (703K)",
        "meta_object_id": "2023-114A",
        "meta_epoch": "2025-12-27T00:52:02.160768",
        "meta_mean_motion": 2.13103934,
        "meta_eccentricity": 0.001104,
        "meta_inclination": 65.2014,
        "meta_ra_of_asc_node": 78.4304,
        "meta_arg_of_pericenter": 287.2469,
        "meta_mean_anomaly": 72.6785,
        "meta_ephemeris_type": 0,
        "meta_classification_type": "U",
        "meta_norad_cat_id": 57517,
        "meta_element_set_no": 999,
        "meta_rev_at_epoch": 1859,
        "meta_bstar": 0,
        "meta_mean_motion_dot": -1.2e-07,
        "meta_mean_motion_ddot": 0,
        "tle_line1": "1 57517U 23114A   25361.03613612 -.00000012  00000+0  00000+0 0  9997",
        "tle_line2": "2 57517  65.2014  78.4304 0011040 287.2469  72.6785  2.13103934 18599"
      },
      "geometry": {
        "type": "Point",
        "coordinates": [
          0.837886630991382,
          -64.69896655680273
        ]
      }
    },
    {
      "type": "Feature",
      "properties": {
        "norad_id": 63130,
        "name": "COSMOS 2584 (704K)",
        "group": "glo-ops",
        "lat": 2.12301637496052,
        "lon": 79.64811009982718,
        "alt_km": 19145.645398954508,
        "timestamp": "2025-12-27T09:28:56.737666+00:00",
        "meta_object_name": "COSMOS 2584 (704K)",
        "meta_object_id": "2025-042A",
        "meta_epoch": "2025-12-24T02:34:25.549824",
        "meta_mean_motion": 2.13102981,
        "meta_eccentricity": 0.00077651,
        "meta_inclination": 64.9819,
        "meta_ra_of_asc_node": 78.7588,
        "meta_arg_of_pericenter": 220.6893,
        "meta_mean_anomaly": 139.3012,
        "meta_ephemeris_type": 0,
        "meta_classification_type": "U",
        "meta_norad_cat_id": 63130,
        "meta_element_set_no": 999,
        "meta_rev_at_epoch": 631,
        "meta_bstar": 0,
        "meta_mean_motion_dot": 1e-08,
        "meta_mean_motion_ddot": 0,
        "tle_line1": "1 63130U 25042A   25358.10724016  .00000001  00000+0  00000+0 0  9999",
        "tle_line2": "2 63130  64.9819  78.7588 0007765 220.6893 139.3012  2.13102981  6316"
      },
      "geometry": {
        "type": "Point",
        "coordinates": [
          79.64811009982718,
          2.12301637496052
        ]
      }
    },
    {
      "type": "Feature",
      "properties": {
        "norad_id": 65590,
        "name": "COSMOS 2596 (708K)",
        "group": "glo-ops",
        "lat": 51.02347429404335,
        "lon": 105.27255608552719,
        "alt_km": 19159.91381082439,
        "timestamp": "2025-12-27T09:28:56.737677+00:00",
        "meta_object_name": "COSMOS 2596 (708K)",
        "meta_object_id": "2025-206B",
        "meta_epoch": "2025-12-26T12:49:29.791776",
        "meta_mean_motion": 2.13100157,
        "meta_eccentricity": 0.0014063,
        "meta_inclination": 64.7367,
        "meta_ra_of_asc_node": 320.9961,
        "meta_arg_of_pericenter": 307.6587,
        "meta_mean_anomaly": 232.6923,
        "meta_ephemeris_type": 0,
        "meta_classification_type": "U",
        "meta_norad_cat_id": 65590,
        "meta_element_set_no": 999,
        "meta_rev_at_epoch": 223,
        "meta_bstar": 0,
        "meta_mean_motion_dot": -3.6e-07,
        "meta_mean_motion_ddot": 0,
        "tle_line1": "1 65590U 25206B   25360.53437259 -.00000036  00000+0  00000+0 0  9992",
        "tle_line2": "2 65590  64.7367 320.9961 0014063 307.6587 232.6923  2.13100157  2234"
      },
      "geometry": {
        "type": "Point",
        "coordinates": [
          105.27255608552719,
          51.02347429404335
        ]
      }
    }
  ]
}